{"type": "FeatureCollection", "features": [ {"type": "Feature", "properties": {"norad_id": 34375, "name": "IRIDIUM 33 DEB", "group": "iridium-33-debris", "lat": 83.05414526487132, "lon": -146.39882941357115, "alt_km": 770.3210096467328, "timestamp": "2025-12-12T11:38:31.797362+00:00", "meta": {"OBJECT_NAME": "IRIDIUM 33 DEB", "OBJECT_ID": "1997-051FT", "EPOCH": "2025-12-12T00:08:57.011424", "MEAN_MOTION": 14.17990153, "ECCENTRICITY": 0.0103263, "INCLINATION": 86.4328, "RA_OF_ASC_NODE": 182.9943, "ARG_OF_PERICENTER": 129.0153, "MEAN_ANOMALY": 32.8209, "EPHEMERIS_TYPE": 0, "CLASSIFICATION_TYPE": "U", "NORAD_CAT_ID": 34375, "ELEMENT_SET_NO": 999, "REV_AT_EPOCH": 86701, "BSTAR": 0.0006067, "MEAN_MOTION_DOT": 1.328e-05, "MEAN_MOTION_DDOT": 0}, "tle": {"line1": "1 34375U 97051FT  25346.00621541  .00001328  00000+0  60670-3 0  9998", "line2": "2 34375  86.4328 182.9943 0103263 129.0153  32.8209 14.17990153867013"}}, "geometry": {"type": "Point", "coordinates": [-146.39882941357115, 83.05414526487132]}}, {"type": "Feature", "properties": {"norad_id": 34376, "name": "IRIDIUM 33 DEB", "group": "iridium-33-debris", "lat": 55.87341957771521, "lon": 12.134784735113175, "alt_km": 686.5977916178299, "timestamp": "2025-12-12T11:38:31.797373+00:00", "meta": {"OBJECT_NAME": "IRIDIUM 33 DEB", "OBJECT_ID": "1997-051FU", "EPOCH": "2025-12-12T01:32:00.921120", "MEAN_MOTION": 14.62553654, "ECCENTRICITY": 0.0027118, "INCLINATION": 86.2991, "RA_OF_ASC_NODE": 6.8437, "ARG_OF_PERICENTER": 168.8775, "MEAN_ANOMALY": 191.3042, "EPHEMERIS_TYPE": 0, "CLASSIFICATION_TYPE": "U", "NORAD_CAT_ID": 34376, "ELEMENT_SET_NO": 999, "REV_AT_EPOCH": 87997, "BSTAR": 0.0021834, "MEAN_MOTION_DOT": 0.00011166, "MEAN_MOTION_DDOT": 0}, "tle": {"line1": "1 34376U 97051FU  25346.06389955  .00011166  00000+0  21834-2 0  9994", "line2": "2 34376  86.2991   6.8437 0027118 168.8775 191.3042 14.62553654879970"}}, "geometry": {"type": "Point", "coordinates": [12.134784735113175, 55.87341957771521]}}, {"type": "Feature", "properties": {"norad_id": 34486, "name": "IRIDIUM 33 DEB", "group": "iridium-33-debris", "lat": -62.530452785806425, "lon": -160.890751074813, "alt_km": 593.1347506156235, "timestamp": "2025-12-12T11:38:31.797383+00:00", "meta": {"OBJECT_NAME": "IRIDIUM 33 DEB", "OBJECT_ID": "1997-051GB", "EPOCH": "2025-12-12T02:47:17.170080", "MEAN_MOTION": 14.95759762, "ECCENTRICITY": 0.00136, "INCLINATION": 86.3941, "RA_OF_ASC_NODE": 12.3125, "ARG_OF_PERICENTER": 115.3931, "MEAN_ANOMALY": 301.9535, "EPHEMERIS_TYPE": 0, "CLASSIFICATION_TYPE": "U", "NORAD_CAT_ID": 34486, "ELEMENT_SET_NO": 999, "REV_AT_EPOCH": 88977, "BSTAR": 0.0027909, "MEAN_MOTION_DOT": 0.00031283, "MEAN_MOTION_DDOT": 0}, "tle": {"line1": "1 34486U 97051GB  25346.11617095  .00031283  00000+0  27909-2 0  9992", "line2": "2 34486  86.3941  12.3125 0013600 115.3931 301.9535 14.95759762889775"}}, "geometry": {"type": "Point", "coordinates": [-160.890751074813, -62.530452785806425]}}, {"type": "Feature", "properties": {"norad_id": 34487, "name": "IRIDIUM 33 DEB", "group": "iridium-33-debris", "lat": -53.832739980964256, "lon": 7.468400754940854, "alt_km": 778.2854236011335, "timestamp": "2025-12-12T11:38:31.797393+00:00", "meta": {"OBJECT_NAME": "IRIDIUM 33 DEB", "OBJECT_ID": "1997-051GC", "EPOCH": "2025-12-12T02:09:31.800960", "MEAN_MOTION": 14.43215052, "ECCENTRICITY": 0.0032733, "INCLINATION": 86.3435, "RA_OF_ASC_NODE": 12.6569, "ARG_OF_PERICENTER": 130.4184, "MEAN_ANOMALY": 283.9789, "EPHEMERIS_TYPE": 0, "CLASSIFICATION_TYPE": "U", "NORAD_CAT_ID": 34487, "ELEMENT_SET_NO": 999, "REV_AT_EPOCH": 88239, "BSTAR": 0.00028054, "MEAN_MOTION_DOT": 9.69e-06, "MEAN_MOTION_DDOT": 0}, "tle": {"line1": "1 34487U 97051GC  25346.08995140  .00000969  00000+0  28054-3 0  9999", "line2": "2 34487  86.3435  12.6569 0032733 130.4184 283.9789 14.43215052882398"}}, "geometry": {"type": "Point", "coordinates": [7.468400754940854, -53.832739980964256]}}, {"type": "Feature", "properties": {"norad_id": 34488, "name": "IRIDIUM 33 DEB", "group": "iridium-33-debris", "lat": -15.545078616178126, "lon": 126.96490241184958, "alt_km": 490.14568331891223, "timestamp": "2025-12-12T11:38:31.797404+00:00", "meta": {"OBJECT_NAME": "IRIDIUM 33 DEB", "OBJECT_ID": "1997-051GD", "EPOCH": "2025-12-11T08:05:29.176800", "MEAN_MOTION": 15.28894611, "ECCENTRICITY": 0.00136408, "INCLINATION": 86.3246, "RA_OF_ASC_NODE": 306.5086, "ARG_OF_PERICENTER": 54.3044, "MEAN_ANOMALY": 305.9471, "EPHEMERIS_TYPE": 0, "CLASSIFICATION_TYPE": "U", "NORAD_CAT_ID": 34488, "ELEMENT_SET_NO": 999, "REV_AT_EPOCH": 89218, "BSTAR": 0.0084778967, "MEAN_MOTION_DOT": 0.00245926, "MEAN_MOTION_DDOT": 0}, "tle": {"line1": "1 34488U 97051GD  25345.33714325  .00245926  00000+0  84779-2 0  9990", "line2": "2 34488  86.3246 306.5086 0013640  54.3044 305.9471 15.28894611892182"}}, "geometry": {"type": "Point", "coordinates": [126.96490241184958, -15.545078616178126]}}, {"type": "Feature", "properties": {"norad_id": 34492, "name": "IRIDIUM 33 DEB", "group": "iridium-33-debris", "lat": 51.91414916235317, "lon": -20.75356235750568, "alt_km": 936.0270263957, "timestamp": "2025-12-12T11:38:31.797414+00:00", "meta": {"OBJECT_NAME": "IRIDIUM 33 DEB", "OBJECT_ID": "1997-051GH", "EPOCH": "2025-12-11T23:52:20.307072", "MEAN_MOTION": 14.25702027, "ECCENTRICITY": 0.0188912, "INCLINATION": 86.4727, "RA_OF_ASC_NODE": 334.9304, "ARG_OF_PERICENTER": 240.6264, "MEAN_ANOMALY": 175.7475, "EPHEMERIS_TYPE": 0, "CLASSIFICATION_TYPE": "U", "NORAD_CAT_ID": 34492, "ELEMENT_SET_NO": 999, "REV_AT_EPOCH": 85048, "BSTAR": 0.0061973, "MEAN_MOTION_DOT": 0.00017773, "MEAN_MOTION_DDOT": 0}, "tle": {"line1": "1 34492U 97051GH  25345.99467948  .00017773  00000+0  61973-2 0  9991", "line2": "2 34492  86.4727 334.9304 0188912 240.6264 175.7475 14.25702027850488"}}, "geometry": {"type": "Point", "coordinates": [-20.75356235750568, 51.91414916235317]}}, {"type": "Feature", "properties": {"norad_id": 34497, "name": "IRIDIUM 33 DEB", "group": "iridium-33-debris", "lat": -71.77038947983704, "lon": 41.11141813332723, "alt_km": 772.9082000187655, "timestamp": "2025-12-12T11:38:31.797424+00:00", "meta": {"OBJECT_NAME": "IRIDIUM 33 DEB", "OBJECT_ID": "1997-051GN", "EPOCH": "2025-12-12T03:42:01.901088", "MEAN_MOTION": 14.27451136, "ECCENTRICITY": 0.0078862, "INCLINATION": 86.278, "RA_OF_ASC_NODE": 52.6518, "ARG_OF_PERICENTER": 341.481, "MEAN_ANOMALY": 47.7522, "EPHEMERIS_TYPE": 0, "CLASSIFICATION_TYPE": "U", "NORAD_CAT_ID": 34497, "ELEMENT_SET_NO": 999, "REV_AT_EPOCH": 86875, "BSTAR": 0.00094546, "MEAN_MOTION_DOT": 2.415e-05, "MEAN_MOTION_DDOT": 0}, "tle": {"line1": "1 34497U 97051GN  25346.15418867  .00002415  00000+0  94546-3 0  9991", "line2": "2 34497  86.2780  52.6518 0078862 341.4810  47.7522 14.27451136868754"}}, "geometry": {"type": "Point", "coordinates": [41.11141813332723, -71.77038947983704]}}, {"type": "Feature", "properties": {"norad_id": 34508, "name": "IRIDIUM 33 DEB", "group": "iridium-33-debris", "lat": 75.3767150321085, "lon": 116.83279525992032, "alt_km": 762.8341505555691, "timestamp": "2025-12-12T11:38:31.797435+00:00", "meta": {"OBJECT_NAME": "IRIDIUM 33 DEB", "OBJECT_ID": "1997-051GZ", "EPOCH": "2025-12-11T20:15:42.194304", "MEAN_MOTION": 14.38415519, "ECCENTRICITY": 0.0066068, "INCLINATION": 86.3699, "RA_OF_ASC_NODE": 103.0225, "ARG_OF_PERICENTER": 175.8688, "MEAN_ANOMALY": 184.307, "EPHEMERIS_TYPE": 0, "CLASSIFICATION_TYPE": "U", "NORAD_CAT_ID": 34508, "ELEMENT_SET_NO": 999, "REV_AT_EPOCH": 87296, "BSTAR": 0.0023452, "MEAN_MOTION_DOT": 7.356e-05, "MEAN_MOTION_DDOT": 0}, "tle": {"line1": "1 34508U 97051GZ  25345.84423836  .00007356  00000+0  23452-2 0  9997", "line2": "2 34508  86.3699 103.0225 0066068 175.8688 184.3070 14.38415519872961"}}, "geometry": {"type": "Point", "coordinates": [116.83279525992032, 75.3767150321085]}}, {"type": "Feature", "properties": {"norad_id": 34521, "name": "IRIDIUM 33 DEB", "group": "iridium-33-debris", "lat": -51.487011151508305, "lon": -144.77750590306988, "alt_km": 688.3704801686672, "timestamp": "2025-12-12T11:38:31.797445+00:00", "meta": {"OBJECT_NAME": "IRIDIUM 33 DEB", "OBJECT_ID": "1997-051HN", "EPOCH": "2025-12-12T04:01:21.502272", "MEAN_MOTION": 14.63360371, "ECCENTRICITY": 0.0001477, "INCLINATION": 86.3802, "RA_OF_ASC_NODE": 30.7997, "ARG_OF_PERICENTER": 216.2058, "MEAN_ANOMALY": 143.9054, "EPHEMERIS_TYPE": 0, "CLASSIFICATION_TYPE": "U", "NORAD_CAT_ID": 34521, "ELEMENT_SET_NO": 999, "REV_AT_EPOCH": 88464, "BSTAR": 0.0013718, "MEAN_MOTION_DOT": 7.108e-05, "MEAN_MOTION_DDOT": 0}, "tle": {"line1": "1 34521U 97051HN  25346.16760998  .00007108  00000+0  13718-2 0  9990", "line2": "2 34521  86.3802  30.7997 0001477 216.2058 143.9054 14.63360371884642"}}, "geometry": {"type": "Point", "coordinates": [-144.77750590306988, -51.487011151508305]}}, {"type": "Feature", "properties": {"norad_id": 34525, "name": "IRIDIUM 33 DEB", "group": "iridium-33-debris", "lat": 68.93378856625544, "lon": 56.43059500113137, "alt_km": 738.0428890921185, "timestamp": "2025-12-12T11:38:31.797455+00:00", "meta": {"OBJECT_NAME": "IRIDIUM 33 DEB", "OBJECT_ID": "1997-051HS", "EPOCH": "2025-12-11T22:34:35.054400", "MEAN_MOTION": 14.42903085, "ECCENTRICITY": 0.0006662, "INCLINATION": 86.3729, "RA_OF_ASC_NODE": 47.1846, "ARG_OF_PERICENTER": 97.1091, "MEAN_ANOMALY": 26.1025, "EPHEMERIS_TYPE": 0, "CLASSIFICATION_TYPE": "U", "NORAD_CAT_ID": 34525, "ELEMENT_SET_NO": 999, "REV_AT_EPOCH": 88076, "BSTAR": 0.00059132, "MEAN_MOTION_DOT": 1.995e-05, "MEAN_MOTION_DDOT": 0}, "tle": {"line1": "1 34525U 97051HS  25345.94068350  .00001995  00000+0  59132-3 0  9991", "line2": "2 34525  86.3729  47.1846 0006662  97.1091  26.1025 14.42903085880764"}}, "geometry": {"type": "Point", "coordinates": [56.43059500113137, 68.93378856625544]}}]}